{"type":"Feature","properties":{"MUN":"POINT PLEASANT BEACH BORO","COUNTY":"OCEAN","MUN_LABEL":"Point Pleasant Beach Borough","MUN_TYPE":"Borough","NAME":"Point Pleasant Beach Borough","GNIS_NAME":"Borough of Point Pleasant Beach"},"geometry":{"type":"Polygon","coordinates":[[[-74.0427405,40.1059399],[-74.0426731,40.1059185],[-74.0422729,40.1057754],[-74.0417221,40.1055785],[-74.0404543,40.1050964],[-74.0392705,40.1047338],[-74.0390288,40.1046668],[-74.0384468,40.1045054],[-74.0381992,40.1044368],[-74.0374668,40.1041519],[-74.0366222,40.1037364],[-74.0349547,40.1028622],[-74.0340119,40.1023596],[-74.0324924,40.1015401],[-74.0319284,40.101242],[-74.0314793,40.1010046],[-74.03146,40.1009961],[-74.0313755,40.1009589],[-74.0315695,40.1003527],[-74.0315768,40.1003268],[-74.0315842,40.1003101],[-74.0316053,40.1002934],[-74.0316327,40.1002806],[-74.0316581,40.1002706],[-74.031681,40.1002679],[-74.0317088,40.1002643],[-74.0317522,40.1002691],[-74.0317739,40.100272],[-74.0318027,40.1002832],[-74.0318484,40.1003075],[-74.0318848,40.100336],[-74.0319041,40.1003504],[-74.0319712,40.1003496],[-74.0320503,40.1003347],[-74.0321199,40.1003054],[-74.0321946,40.1002603],[-74.0322463,40.1002073],[-74.0322803,40.1001227],[-74.032323,40.1000178],[-74.0324761,40.0996425],[-74.032726,40.0989339],[-74.0330586,40.0981566],[-74.0334577,40.0974092],[-74.0338082,40.0966379],[-74.0340523,40.0960436],[-74.0344398,40.095101],[-74.0346689,40.0944435],[-74.034751,40.0942566],[-74.0348421,40.0940677],[-74.0350226,40.0935737],[-74.0351867,40.0930323],[-74.0352012,40.092988],[-74.0353072,40.0926657],[-74.0354448,40.0922468],[-74.0357001,40.0915126],[-74.0360049,40.0906524],[-74.0362472,40.089928],[-74.036479,40.0892488],[-74.0368232,40.0882449],[-74.0371924,40.0871741],[-74.0375073,40.0861483],[-74.0377077,40.0853567],[-74.0379634,40.0845417],[-74.0382141,40.0837108],[-74.0384566,40.082945],[-74.0386328,40.0823169],[-74.0387375,40.0820197],[-74.0387614,40.0818995],[-74.0387702,40.08173],[-74.0387915,40.0816099],[-74.0388412,40.0814701],[-74.0389295,40.0813187],[-74.0390504,40.0810885],[-74.0391079,40.0809252],[-74.0391581,40.0807184],[-74.0393698,40.0799524],[-74.0394327,40.0797556],[-74.0395281,40.0793203],[-74.039532,40.0791114],[-74.039561,40.0790031],[-74.0395975,40.0789204],[-74.0397091,40.0787277],[-74.039821,40.0785015],[-74.0398733,40.0783519],[-74.0398918,40.0782711],[-74.0399488,40.0780072],[-74.0399542,40.0779846],[-74.0400575,40.0775596],[-74.0400847,40.0774479],[-74.0401601,40.0771112],[-74.0402559,40.0765951],[-74.0403446,40.0761874],[-74.040489,40.0755079],[-74.0404905,40.0754981],[-74.0480287,40.0780424],[-74.0483272,40.0806959],[-74.0485018,40.0819581],[-74.0487382,40.0836668],[-74.0550256,40.0852121],[-74.0546676,40.0890719],[-74.0548418,40.0890835],[-74.0550663,40.0890985],[-74.0554399,40.0891235],[-74.0554762,40.089126],[-74.0553727,40.0902051],[-74.0563825,40.090159],[-74.0563873,40.0902041],[-74.0564874,40.0911554],[-74.0563421,40.091164],[-74.0561727,40.0924885],[-74.0561277,40.0926204],[-74.055541,40.0940046],[-74.0570589,40.0944027],[-74.0593489,40.0962474],[-74.0589986,40.0964998],[-74.058473,40.0969357],[-74.0579242,40.0974079],[-74.0576598,40.097772],[-74.0572753,40.0984456],[-74.056997,40.0991541],[-74.0568888,40.0994294],[-74.0566702,40.1001584],[-74.0564513,40.1009422],[-74.0562103,40.1014704],[-74.055898,40.1019983],[-74.0555385,40.1024713],[-74.0551956,40.1028007],[-74.0547668,40.1031322],[-74.0538529,40.1036803],[-74.0533891,40.1039188],[-74.0529538,40.104141],[-74.0525469,40.1043688],[-74.0520037,40.1047817],[-74.0513603,40.1052926],[-74.0509604,40.1055422],[-74.0504465,40.1058133],[-74.0499187,40.1060515],[-74.049177,40.1063654],[-74.0485148,40.1066325],[-74.0485066,40.1066358],[-74.0480792,40.1067325],[-74.0477094,40.1067516],[-74.0470318,40.1067056],[-74.0459589,40.1066363],[-74.0452393,40.1065359],[-74.044252,40.1063477],[-74.0434341,40.1061601],[-74.0427405,40.1059399]]]}}
